{
  "type": "FeatureCollection",
  "features": [
    {
      "type": "Feature",
      "properties": {
        "norad_id": 34350,
        "name": "IRIDIUM 33 DEB",
        "group": "iridium-33-debris",
        "lat": 69.75611027505616,
        "lon": 12.024846242475505,
        "alt_km": 725.6505524781787,
        "timestamp": "2025-12-14T14:39:29.754187+00:00",
        "meta_object_name": "IRIDIUM 33 DEB",
        "meta_object_id": "1997-051ES",
        "meta_epoch": "2025-12-13T14:00:17.029152",
        "meta_mean_motion": 14.45389199,
        "meta_eccentricity": 0.00228878,
        "meta_inclination": 86.3275,
        "meta_ra_of_asc_node": 2.4411,
        "meta_arg_of_pericenter": 132.5486,
        "meta_mean_anomaly": 356.1035,
        "meta_ephemeris_type": 0,
        "meta_classification_type": "U",
        "meta_norad_cat_id": 34350,
        "meta_element_set_no": 999,
        "meta_rev_at_epoch": 88305,
        "meta_bstar": 0.00044409912,
        "meta_mean_motion_dot": 1.586e-05,
        "meta_mean_motion_ddot": 0,
        "tle_line1": "1 34350U 97051ES  25347.58353043  .00001586  00000+0  44410-3 0  9994",
        "tle_line2": "2 34350  86.3275   2.4411 0022887 132.5486 356.1035 14.45389199883056"
      },
      "geometry": {
        "type": "Point",
        "coordinates": [
          12.024846242475505,
          69.75611027505616
        ]
      }
    },
    {
      "type": "Feature",
      "properties": {
        "norad_id": 34366,
        "name": "IRIDIUM 33 DEB",
        "group": "iridium-33-debris",
        "lat": 82.52446455265276,
        "lon": -160.43444106204183,
        "alt_km": 692.1578915195223,
        "timestamp": "2025-12-14T14:39:29.754197+00:00",
        "meta_object_name": "IRIDIUM 33 DEB",
        "meta_object_id": "1997-051FJ",
        "meta_epoch": "2025-12-13T15:39:41.959008",
        "meta_mean_motion": 14.54070514,
        "meta_eccentricity": 0.0022578,
        "meta_inclination": 86.3699,
        "meta_ra_of_asc_node": 48.9163,
        "meta_arg_of_pericenter": 136.7166,
        "meta_mean_anomaly": 347.3709,
        "meta_ephemeris_type": 0,
        "meta_classification_type": "U",
        "meta_norad_cat_id": 34366,
        "meta_element_set_no": 999,
        "meta_rev_at_epoch": 88195,
        "meta_bstar": 0.0012496588,
        "meta_mean_motion_dot": 5.312e-05,
        "meta_mean_motion_ddot": 0,
        "tle_line1": "1 34366U 97051FJ  25347.65256897  .00005312  00000+0  12497-2 0  9998",
        "tle_line2": "2 34366  86.3699  48.9163 0022578 136.7166 347.3709 14.54070514881955"
      },
      "geometry": {
        "type": "Point",
        "coordinates": [
          -160.43444106204183,
          82.52446455265276
        ]
      }
    },
    {
      "type": "Feature",
      "properties": {
        "norad_id": 34375,
        "name": "IRIDIUM 33 DEB",
        "group": "iridium-33-debris",
        "lat": 50.44001916699371,
        "lon": -2.3861826320039254,
        "alt_km": 753.8449272218431,
        "timestamp": "2025-12-14T14:39:29.754207+00:00",
        "meta_object_name": "IRIDIUM 33 DEB",
        "meta_object_id": "1997-051FT",
        "meta_epoch": "2025-12-13T19:31:13.647360",
        "meta_mean_motion": 14.17994581,
        "meta_eccentricity": 0.01033715,
        "meta_inclination": 86.4325,
        "meta_ra_of_asc_node": 182.2662,
        "meta_arg_of_pericenter": 123.3571,
        "meta_mean_anomaly": 257.7603,
        "meta_ephemeris_type": 0,
        "meta_classification_type": "U",
        "meta_norad_cat_id": 34375,
        "meta_element_set_no": 999,
        "meta_rev_at_epoch": 86727,
        "meta_bstar": 0.00056520957,
        "meta_mean_motion_dot": 1.239e-05,
        "meta_mean_motion_ddot": 0,
        "tle_line1": "1 34375U 97051FT  25347.81335240  .00001239  00000+0  56521-3 0  9997",
        "tle_line2": "2 34375  86.4325 182.2662 0103371 123.3571 257.7603 14.17994581867275"
      },
      "geometry": {
        "type": "Point",
        "coordinates": [
          -2.3861826320039254,
          50.44001916699371
        ]
      }
    },
    {
      "type": "Feature",
      "properties": {
        "norad_id": 34376,
        "name": "IRIDIUM 33 DEB",
        "group": "iridium-33-debris",
        "lat": 80.403389782339,
        "lon": 28.208975304666723,
        "alt_km": 673.7970734238743,
        "timestamp": "2025-12-14T14:39:29.754218+00:00",
        "meta_object_name": "IRIDIUM 33 DEB",
        "meta_object_id": "1997-051FU",
        "meta_epoch": "2025-12-13T12:00:57.265920",
        "meta_mean_motion": 14.6258475,
        "meta_eccentricity": 0.00272414,
        "meta_inclination": 86.2989,
        "meta_ra_of_asc_node": 6.1981,
        "meta_arg_of_pericenter": 164.1011,
        "meta_mean_anomaly": 196.1062,
        "meta_ephemeris_type": 0,
        "meta_classification_type": "U",
        "meta_norad_cat_id": 34376,
        "meta_element_set_no": 999,
        "meta_rev_at_epoch": 88018,
        "meta_bstar": 0.0016904262,
        "meta_mean_motion_dot": 8.654e-05,
        "meta_mean_motion_ddot": 0,
        "tle_line1": "1 34376U 97051FU  25347.50066280  .00008654  00000+0  16904-2 0  9997",
        "tle_line2": "2 34376  86.2989   6.1981 0027241 164.1011 196.1062 14.62584750880184"
      },
      "geometry": {
        "type": "Point",
        "coordinates": [
          28.208975304666723,
          80.403389782339
        ]
      }
    },
    {
      "type": "Feature",
      "properties": {
        "norad_id": 34486,
        "name": "IRIDIUM 33 DEB",
        "group": "iridium-33-debris",
        "lat": 17.86229864787046,
        "lon": -170.00299071009368,
        "alt_km": 574.5325248832814,
        "timestamp": "2025-12-14T14:39:29.754228+00:00",
        "meta_object_name": "IRIDIUM 33 DEB",
        "meta_object_id": "1997-051GB",
        "meta_epoch": "2025-12-13T14:25:02.342784",
        "meta_mean_motion": 14.95863937,
        "meta_eccentricity": 0.00137431,
        "meta_inclination": 86.3939,
        "meta_ra_of_asc_node": 11.6276,
        "meta_arg_of_pericenter": 110.8846,
        "meta_mean_anomaly": 15.3337,
        "meta_ephemeris_type": 0,
        "meta_classification_type": "U",
        "meta_norad_cat_id": 34486,
        "meta_element_set_no": 999,
        "meta_rev_at_epoch": 88999,
        "meta_bstar": 0.0025045383,
        "meta_mean_motion_dot": 0.0002814,
        "meta_mean_motion_ddot": 0,
        "tle_line1": "1 34486U 97051GB  25347.60072156  .00028140  00000+0  25045-2 0  9997",
        "tle_line2": "2 34486  86.3939  11.6276 0013743 110.8846  15.3337 14.95863937889994"
      },
      "geometry": {
        "type": "Point",
        "coordinates": [
          -170.00299071009368,
          17.86229864787046
        ]
      }
    },
    {
      "type": "Feature",
      "properties": {
        "norad_id": 34487,
        "name": "IRIDIUM 33 DEB",
        "group": "iridium-33-debris",
        "lat": -3.5716900754151193,
        "lon": -168.1992893565093,
        "alt_km": 740.0253354926672,
        "timestamp": "2025-12-14T14:39:29.754238+00:00",
        "meta_object_name": "IRIDIUM 33 DEB",
        "meta_object_id": "1997-051GC",
        "meta_epoch": "2025-12-13T20:18:23.741568",
        "meta_mean_motion": 14.43217975,
        "meta_eccentricity": 0.00328278,
        "meta_inclination": 86.3435,
        "meta_ra_of_asc_node": 11.9011,
        "meta_arg_of_pericenter": 124.9073,
        "meta_mean_anomaly": 47.9317,
        "meta_ephemeris_type": 0,
        "meta_classification_type": "U",
        "meta_norad_cat_id": 34487,
        "meta_element_set_no": 999,
        "meta_rev_at_epoch": 88264,
        "meta_bstar": 0.00025436578,
        "meta_mean_motion_dot": 8.81e-06,
        "meta_mean_motion_ddot": 0,
        "tle_line1": "1 34487U 97051GC  25347.84610812  .00000881  00000+0  25437-3 0  9999",
        "tle_line2": "2 34487  86.3435  11.9011 0032827 124.9073  47.9317 14.43217975882640"
      },
      "geometry": {
        "type": "Point",
        "coordinates": [
          -168.1992893565093,
          -3.5716900754151193
        ]
      }
    },
    {
      "type": "Feature",
      "properties": {
        "norad_id": 34488,
        "name": "IRIDIUM 33 DEB",
        "group": "iridium-33-debris",
        "lat": 12.666904527279424,
        "lon": -54.28522900223961,
        "alt_km": 469.9535655365171,
        "timestamp": "2025-12-14T14:39:29.754248+00:00",
        "meta_object_name": "IRIDIUM 33 DEB",
        "meta_object_id": "1997-051GD",
        "meta_epoch": "2025-12-13T21:20:06.708192",
        "meta_mean_motion": 15.29804687,
        "meta_eccentricity": 0.00127774,
        "meta_inclination": 86.3232,
        "meta_ra_of_asc_node": 305.2445,
        "meta_arg_of_pericenter": 49.9187,
        "meta_mean_anomaly": 310.3179,
        "meta_ephemeris_type": 0,
        "meta_classification_type": "U",
        "meta_norad_cat_id": 34488,
        "meta_element_set_no": 999,
        "meta_rev_at_epoch": 89257,
        "meta_bstar": 0.0047409619,
        "meta_mean_motion_dot": 0.00139416,
        "meta_mean_motion_ddot": 0,
        "tle_line1": "1 34488U 97051GD  25347.88896653  .00139416  00000+0  47410-2 0  9994",
        "tle_line2": "2 34488  86.3232 305.2445 0012777  49.9187 310.3179 15.29804687892573"
      },
      "geometry": {
        "type": "Point",
        "coordinates": [
          -54.28522900223961,
          12.666904527279424
        ]
      }
    }
  ]
}